0 ARIANE 5 DEB (SPELTRA)
1 27950U 03043D   13281.38624928 -.00000020  00000-0  21881-2 0  1739
2 27950 007.3028 254.5046 7147570 325.3620 249.2130 02.24815757 82410
0 ARIANE 5 DEB (SPELTRA)
1 27950U 03043D   13282.75019352 -.00000049  00000-0  17922-2 0  1743
2 27950 007.2987 254.0070 7147826 326.3534 273.0901 02.24816472 82443
0 ARIANE 5 DEB (SPELTRA)
1 27950U 03043D   13283.30721525  .00000139  00000-0  25157-2 0  1767
2 27950 007.3479 253.6184 7149167 326.9295 003.9103 02.24816640 82453
0 ARIANE 5 DEB (SPELTRA)
1 27950U 03043D   13283.98679635 -.00000067  00000-0  18521-2 0  1752
2 27950 007.2949 253.5558 7148035 327.2518 193.9090 02.24816896 82473
0 ARIANE 5 DEB (SPELTRA)
1 27950U 03043D   13285.81474186 -.00000107  00000-0  19637-2 0  1765
2 27950 007.2892 252.8867 7148383 328.5833 233.3252 02.24817150 82513
0 ARIANE 5 DEB (SPELTRA)
1 27950U 03043D   13287.16576693 -.00000121  00000-0  22354-2 0  1778
2 27950 007.2850 252.3920 7148618 329.5674 246.7562 02.24817432 82545
0 ARIANE 5 DEB (SPELTRA)
1 27950U 03043D   13288.84687334 -.00000112  00000-0  26387-2 0  1780
2 27950 007.2798 251.7765 7148925 330.7915 167.3360 02.24817518 82582
0 ARIANE 5 DEB (SPELTRA)
1 27950U 03043D   13289.84935588 -.00000106  00000-0  26349-2 0  1790
2 27950 007.2766 251.4087 7149078 331.5223 258.6807 02.24817847 82600
0 ARIANE 5 DEB (SPELTRA)
1 27950U 03043D   13291.16081075 -.00000107  00000-0  22144-2 0  1803
2 27950 007.2724 250.9284 7149295 332.4781 240.0854 02.24818592 82635
0 ARIANE 5 DEB (SPELTRA)
1 27950U 03043D   13292.41670104 -.00000102  00000-0  18403-2 0  1818
2 27950 007.2684 250.4684 7149465 333.3928 176.5218 02.24819233 82664
0 ARIANE 5 DEB (SPELTRA)
1 27950U 03043D   13293.79951082 -.00000105  00000-0  13496-2 0  1828
2 27950 007.2638 249.9602 7149645 334.4019 215.6819 02.24819870 82691
0 ARIANE 5 DEB (SPELTRA)
1 27950U 03043D   13295.04632696 -.00000139  00000-0  53638-3 0  1836
2 27950 007.2598 249.5016 7149847 335.3124 144.7778 02.24820618 82724
